{"generatedAt":"2026-04-17T07:58:35.246967Z","satellites":[{"name":"EUTELSAT HOTBIRD 13G","tle1":"1 54225U 22146A   26106.79957696  .00000094  00000+0  00000+0 0  9997","tle2":"2 54225   0.0397 232.6586 0002084 310.9908 322.1425  1.00270867  6854"},{"name":"ZHONGXING-19","tle1":"1 54230U 22148A   26106.88794674 -.00000075  00000+0  00000+0 0  9990","tle2":"2 54230   0.0183 261.8652 0001989 125.3511 300.6530  1.00271830 12768"},{"name":"GALAXY 31 (G-31)","tle1":"1 54243U 22153A   26106.91556552  .00000020  00000+0  00000+0 0  9994","tle2":"2 54243   0.0093 234.2943 0001260 148.8609  30.5103  1.00270917  6515"},{"name":"GALAXY 32 (G-32)","tle1":"1 54244U 22153B   26106.92163221  .00000000  00000+0  00000+0 0  9991","tle2":"2 54244   0.0104 248.0044 0002798 126.3772  71.4679  1.00269436 12527"},{"name":"EUTELSAT 10B","tle1":"1 54259U 22157A   26106.87032530  .00000074  00000+0  00000+0 0  9994","tle2":"2 54259   0.0599  91.3146 0001550  24.5954  52.4350  1.00266318 12418"},{"name":"GALAXY 35 (G-35)","tle1":"1 54741U 22170A   26106.90044647 -.00000156  00000+0  00000+0 0  9993","tle2":"2 54741   0.0126 238.7203 0001913 149.6195  47.7607  1.00271213 12276"},{"name":"GALAXY 36 (G-36)","tle1":"1 54742U 22170B   26106.92197888 -.00000179  00000+0  00000+0 0  9997","tle2":"2 54742   0.0183 158.3996 0002568 262.8743  26.7030  1.00271675 12156"},{"name":"METEOSAT-12 (MTG-I1)","tle1":"1 54743U 22170C   26106.93957444 -.00000001  00000+0  00000+0 0  9995","tle2":"2 54743   0.7127  20.5355 0001116 326.1910 196.3859  1.00267392 12366"},{"name":"SHIJIAN-23 (SJ-23)","tle1":"1 55131U 23002A   26106.76475588 -.00000040  00000+0  00000+0 0  9990","tle2":"2 55131   3.5592  79.0624 0005529 267.9971 295.2525  1.00476108 11897"},{"name":"APSTAR-6E","tle1":"1 55239U 23005A   26105.89663332 -.00000311  00000+0  00000+0 0  9992","tle2":"2 55239   0.0137 217.4893 0000599 147.1580 296.1892  1.00272356 18068"},{"name":"USA 342","tle1":"1 55263U 23008A   26104.77130750  .00000143  00000+0  00000+0 0  9993","tle2":"2 55263   0.0122 241.7251 0000168  51.7610 210.9298  1.00273457 11883"},{"name":"LDPE-3A","tle1":"1 55264U 23008B   26106.89511209 -.00000328  00000+0  00000+0 0  9997","tle2":"2 55264   2.1869  82.3883 0000181  46.8077 173.3176  0.99987116 11206"},{"name":"ELEKTRO-L 4","tle1":"1 55506U 23016A   26105.97251882 -.00000053  00000+0  00000+0 0  9996","tle2":"2 55506   0.0545  31.6296 0000726 244.5814  83.7882  1.00270534 11715"},{"name":"AMAZONAS NEXUS","tle1":"1 55508U 23017A   26106.92752773  .00000000  00000+0  00000+0 0  9991","tle2":"2 55508   0.0176  26.0837 0005216   4.1196  87.7697  1.00265477  6439"},{"name":"ZHONGXING-26","tle1":"1 55686U 23023A   26106.62249025 -.00000347  00000+0  00000+0 0  9998","tle2":"2 55686   0.0640  61.1339 0004371 354.8306 138.0082  1.00267111 11619"},{"name":"LUCH-5X (OLYMP-K 2)","tle1":"1 55841U 23031A   26106.66667632  .00000040  00000+0  00000+0 0  9991","tle2":"2 55841   0.0217  83.9134 0001325 101.6823 321.2007  1.00272868 11321"},{"name":"GAOFEN-13 02","tle1":"1 55912U 23036A   26106.75503008 -.00000213  00000+0  00000+0 0  9994","tle2":"2 55912   1.0214 353.2296 0004842 336.8782 294.8615  1.00271335 11477"},{"name":"SES-18","tle1":"1 55970U 23038A   26106.90643649 -.00000094  00000+0  00000+0 0  9990","tle2":"2 55970   0.0229 264.4605 0001696  58.8876 104.9251  1.00271064 11489"},{"name":"SES-19","tle1":"1 55971U 23038B   26106.69897969  .00000094  00000+0  00000+0 0  9992","tle2":"2 55971   0.0190 283.1352 0001573  98.4129 300.0353  1.00271502 11466"},{"name":"INTELSAT 40E (IS-40E)","tle1":"1 56174U 23052A   26106.90044647 -.00000168  00000+0  00000+0 0  9998","tle2":"2 56174   0.0127 196.9288 0000741 229.6187  11.6591  1.00271718 11209"},{"name":"VIASAT-3 F1","tle1":"1 56370U 23060A   26106.90044647 -.00000179  00000+0  00000+0 0  9997","tle2":"2 56370   0.0161 267.4442 0001054 177.5560 355.2813  1.00271525 10811"},{"name":"ARCTURUS","tle1":"1 56371U 23060B   26106.89400084 -.00000054  00000+0  00000+0 0  9999","tle2":"2 56371   2.6186  80.7053 0001482 340.2992 178.4004  1.00272338 10847"},{"name":"GS-1","tle1":"1 56372U 23060C   26106.81425171 -.00000197  00000+0  00000+0 0  9994","tle2":"2 56372   2.5688  80.5234 0004631 271.9071 232.5780  1.00290780  6928"},{"name":"BEIDOU-3 G4","tle1":"1 56564U 23066A   26106.89606543 -.00000275  00000+0  00000+0 0  9992","tle2":"2 56564   0.5747 317.9492 0002505 165.0235 184.6554  1.00275739 10772"},{"name":"ARABSAT-7B (BADR-8)","tle1":"1 56757U 23075A   26106.95476919  .00000152  00000+0  00000+0 0  9998","tle2":"2 56757   0.0767  29.5633 0005699 335.7831 209.4802  1.00282782 10500"},{"name":"NVS-01 (IRNSS-1J)","tle1":"1 56759U 23076A   26106.89398542 -.00000331  00000+0  00000+0 0  9999","tle2":"2 56759   2.3133 246.9828 0005711  49.0707   0.3780  1.00272937 10501"},{"name":"NUSANTARA TIGA (SATRIA)","tle1":"1 57045U 23086A   26106.82595177 -.00000227  00000+0  00000+0 0  9999","tle2":"2 57045   0.0518 310.8953 0004971  27.2785 310.1450  1.00274770  9144"},{"name":"H2SAT (HEINRICH HERTZ)","tle1":"1 57213U 23093A   26106.93974778  .00000000  00000+0  00000+0 0  9992","tle2":"2 57213   0.0153 225.6481 0001144 273.1363  45.2893  1.00264110 10302"},{"name":"SYRACUSE 4B","tle1":"1 57214U 23093B   26106.93836111  .00000000  00000+0  00000+0 0  9991","tle2":"2 57214   0.0168 224.1063 0000179 320.9596 351.3824  1.00269171  6352"},{"name":"JUPITER 3 (ECHOSTAR 24)","tle1":"1 57479U 23108A   26106.69547229 -.00000143  00000+0  00000+0 0  9992","tle2":"2 57479   0.0121 237.4385 0001107 150.9891 331.5869  1.00271948 10022"},{"name":"GALAXY 37 (G-37)","tle1":"1 57493U 23112A   26106.91443884  .00000055  00000+0  00000+0 0  9991","tle2":"2 57493   0.0106 195.5040 0001859 185.4080  26.3434  1.00270571  9925"},{"name":"LUDI TANCE-4 01A","tle1":"1 57624U 23120A   26106.93450247 -.00000181  00000+0  00000+0 0  9990","tle2":"2 57624  15.1416 195.4934 0003682 116.7926 318.7776  1.00269677  9938"},{"name":"TJS-10","tle1":"1 58204U 23169A   26106.69365457 -.00000205  00000+0  00000+0 0  9996","tle2":"2 58204   2.3854  81.1933 0001302  56.7421  40.4269  1.00461057  8927"},{"name":"ZHONGXING-6E","tle1":"1 58253U 23172A   26106.96245456 -.00000354  00000+0  00000+0 0  9995","tle2":"2 58253   0.0238 118.6856 0002457 265.8633 282.5011  1.00266888  9045"},{"name":"YAOGAN-41","tle1":"1 58582U 23197A   26106.96401456 -.00000361  00000+0  00000+0 0  9999","tle2":"2 58582   3.2432 312.2052 0012041 182.7455 180.3411  1.00265600  8713"},{"name":"OVZON-3","tle1":"1 58698U 24003A   26106.94841928  .00000060  00000+0  00000+0 0  9999","tle2":"2 58698   0.0140 186.0548 0000863  16.1215  44.0340  1.00260529  6835"},{"name":"INSAT-3DS","tle1":"1 58990U 24033A   26106.88453870 -.00000149  00000+0  00000+0 0  9994","tle2":"2 58990   0.0676  84.3704 0001851 297.0881 224.0906  1.00271736 46457"},{"name":"MERAH PUTIH 2","tle1":"1 58995U 24035A   26106.89069207 -.00000351  00000+0  00000+0 0  9994","tle2":"2 58995   0.0192 193.1299 0000728 224.1586 221.3446  1.00263520  7973"},{"name":"TJS-11","tle1":"1 59020U 24037A   26106.86525152 -.00000368  00000+0  00000+0 0  9997","tle2":"2 59020   4.2820 326.3117 0005086  75.1960 235.3702  1.00272583  7966"},{"name":"HULIANWAN GAOGUI-01 (H*)","tle1":"1 59069U 24040A   26106.87500532  .00000162  00000+0  00000+0 0  9991","tle2":"2 59069   0.0669 321.3723 0003782  56.4860 175.7677  1.00272060  6714"},{"name":"EUTELSAT 36D","tle1":"1 59346U 24059A   26106.82013696  .00000000  00000+0  00000+0 0  9995","tle2":"2 59346   0.0182 218.8862 0000255 334.8776 342.3048  1.00269229  7535"},{"name":"PAKSAT-MM1","tle1":"1 59915U 24104A   26106.92351449  .00000160  00000+0  00000+0 0  9997","tle2":"2 59915   0.0034 152.7420 0002044 215.3589 207.5988  1.00268733  6917"},{"name":"ASTRA 1P (SES-24)","tle1":"1 60086U 24115A   26106.94338780  .00000126  00000+0  00000+0 0  9997","tle2":"2 60086   0.0750  37.4296 0004082 270.9490 255.5279  1.00270012  6587"},{"name":"GOES 19","tle1":"1 60133U 24119A   26106.85342523 -.00000242  00000+0  00000+0 0  9994","tle2":"2 60133   0.0462  56.2571 0000514  25.0401 355.7408  1.00271691  6347"},{"name":"ZHONGXING-3A","tle1":"1 60179U 24122A   26106.66830551 -.00000307  00000+0  00000+0 0  9992","tle2":"2 60179   0.0370  18.6450 0002075   7.8614 160.4912  1.00270038  6694"},{"name":"TURKSAT 6A","tle1":"1 60233U 24127A   26106.92351449  .00000153  00000+0  00000+0 0  9999","tle2":"2 60233   0.0359 214.2400 0001005 125.9315 239.4094  1.00273612  6401"},{"name":"HULIANWAN GAOGUI-02 (H*)","tle1":"1 60327U 24135A   26105.40108854 -.00000168  00000+0  00000+0 0  9991","tle2":"2 60327   0.0578  22.0811 0008783 333.6861 145.2310  1.00273087  6875"},{"name":"ZHONGXING-4A","tle1":"1 60606U 24151A   26106.89173207 -.00000358  00000+0  00000+0 0  9998","tle2":"2 60606   1.4738 271.5325 0001185  89.9898 282.7360  1.00274152  6145"},{"name":"HULIANWAN GAOGUI-03 (H*)","tle1":"1 61503U 24181A   26106.92405889 -.00000235  00000+0  00000+0 0  9990","tle2":"2 61503   0.0582  22.0999 0000606 118.5550 319.9405  1.00274496  6213"},{"name":"DSN-3 (KIRAMEKI-3)","tle1":"1 61733U 24198A   26106.89684543  .00000000  00000+0  00000+0 0  9994","tle2":"2 61733   0.0159 222.1465 0000677 112.7519 337.0509  1.00267799  5301"},{"name":"KOREASAT 6A","tle1":"1 61910U 24206A   26106.86011619 -.00000355  00000+0  00000+0 0  9990","tle2":"2 61910   0.0105 218.7697 0000657 150.1933 261.6860  1.00270640  5223"},{"name":"OPTUS-X (ADS-01)","tle1":"1 62006U 24212A   26106.87837800 -.00000136  00000+0  00000+0 0  9990","tle2":"2 62006   0.0216 252.2630 0001069 163.0189 262.3784  1.00272467  5140"},{"name":"GSAT-N2 (GSAT-20)","tle1":"1 62028U 24214A   26106.95309451 -.00000013  00000+0  00000+0 0  9995","tle2":"2 62028   0.0444  81.3393 0001136  51.0538 123.8020  1.00273137  5287"},{"name":"SXM-9","tle1":"1 62259U 24234A   26106.92275888 -.00000198  00000+0  00000+0 0  9990","tle2":"2 62259   0.0161 297.1509 0004740  12.3695 142.5806  1.00270241  4959"}]}